[{"OBJECT_NAME":"LEMUR-2-ANDIS","OBJECT_ID":"2017-042P","EPOCH":"2026-03-09T13:25:33.116448","MEAN_MOTION":15.30557934,"ECCENTRICITY":0.0009101,"INCLINATION":97.3659,"RA_OF_ASC_NODE":249.795,"ARG_OF_PERICENTER":4.3248,"MEAN_ANOMALY":355.807,"EPHEMERIS_TYPE":0,"CLASSIFICATION_TYPE":"U","NORAD_CAT_ID":42838,"ELEMENT_SET_NO":999,"REV_AT_EPOCH":47319,"BSTAR":0.00079875,"MEAN_MOTION_DOT":0.00023598,"MEAN_MOTION_DDOT":0},{"OBJECT_NAME":"STARLINK-30540","OBJECT_ID":"2023-153M","EPOCH":"2026-03-08T23:57:12.210336","MEAN_MOTION":15.26723101,"ECCENTRICITY":7.347e-5,"INCLINATION":43.0033,"RA_OF_ASC_NODE":70.6829,"ARG_OF_PERICENTER":215.1985,"MEAN_ANOMALY":144.8818,"EPHEMERIS_TYPE":0,"CLASSIFICATION_TYPE":"U","NORAD_CAT_ID":58002,"ELEMENT_SET_NO":999,"REV_AT_EPOCH":13469,"BSTAR":-0.00015087491,"MEAN_MOTION_DOT":-4.302e-5,"MEAN_MOTION_DDOT":0}]
